ONEWEB-0381             
1 49307U 21090AE  26022.25074039  .00000113  00000+0  24612-3 0  9999
2 49307  87.9231 303.5553 0001973  75.2721 284.8631 13.20774567210561
ONEWEB-0382             
1 49308U 21090AF  26022.23810913  .00000045  00000+0  77734-4 0  9995
2 49308  87.9232 303.5544 0002005  70.7001 289.4349 13.20772929210557
ONEWEB-0383             
1 49309U 21090AG  26022.26595860  .00000401  00000+0  10478-2 0  9996
2 49309  87.9034 318.7750 0001827  73.0357 287.0973 13.14503995208424
ONEWEB-0384             
1 49310U 21090AH  26022.23062908  .00000126  00000+0  27705-3 0  9993
2 49310  87.9242 303.5952 0002160  63.4713 296.6641 13.20803143210564
ONEWEB-0385             
1 49311U 21090AJ  26022.23022234  .00000138  00000+0  30790-3 0  9993
2 49311  87.9230 303.5599 0001853  74.8196 285.3143 13.20769925210536
ONEWEB-0386             
1 49312U 21090AK  26022.24757203  .00000183  00000+0  41698-3 0  9995
2 49312  87.9232 303.5415 0001908  70.3899 289.7441 13.20774408210551
ONEWEB-0387             
1 49313U 21090AL  26022.23179843  .00000123  00000+0  27128-3 0  9999
2 49313  87.9224 303.5861 0001988  79.5326 280.6031 13.20773514210554
ONEWEB-0388             
1 49314U 21090AM  26022.30887957  .00000067  00000+0  13480-3 0  9993
2 49314  87.9236 334.0044 0001923  76.8660 283.2687 13.19727144207176
ONEWEB-0389             
1 50469U 21132A   26022.32534207  .00000008  00000+0 -12429-4 0  9991
2 50469  87.9087  34.8576 0002193  89.9158 270.2225 13.17649129198879
ONEWEB-0390             
1 50470U 21132B   26022.32702931  .00000043  00000+0  77862-4 0  9994
2 50470  87.9086  34.8580 0001838 100.1817 259.9522 13.17648546198874
ONEWEB-0391             
1 50471U 21132C   26022.02496279  .00000023  00000+0  26200-4 0  9995
2 50471  87.9085  34.9276 0002660  98.5932 261.5501 13.17651110198832
ONEWEB-0392             
1 50472U 21132D   26022.28315884  .00000068  00000+0  14106-3 0  9996
2 50472  87.9091  34.8315 0002228  91.4425 268.6962 13.17650944198903
ONEWEB-0393             
1 50473U 21132E   26022.02848502  .00000026  00000+0  32522-4 0  9994
2 50473  87.9096  34.9056 0001986  91.4256 268.7103 13.17648182198868
ONEWEB-0394             
1 50474U 21132F   26021.88383279  .00000024  00000+0  27461-4 0  9997
2 50474  87.9196   4.4850 0001990  82.7583 277.3775 13.18685304202310
ONEWEB-0395             
1 50475U 21132G   26022.05872477  .00000582  00000+0  16072-2 0  9994
2 50475  87.8815  50.1607 0001945 101.1495 258.9852 13.11418754196560
ONEWEB-0396             
1 50476U 21132H   26022.18074519  .00000048  00000+0  89654-4 0  9995
2 50476  87.9197   4.4379 0001954  84.3159 275.8196 13.18686900202397
ONEWEB-0397             
1 50477U 21132J   26021.89207391  .00000036  00000+0  58092-4 0  9998
2 50477  87.9196   4.4953 0001963  79.7160 280.4194 13.18686333202339
