[{"OBJECT_NAME":"ONEWEB-0381","OBJECT_ID":"2021-090AE","EPOCH":"2026-01-22T06:01:03.969696","MEAN_MOTION":13.20774567,"ECCENTRICITY":0.00019738,"INCLINATION":87.9231,"RA_OF_ASC_NODE":303.5553,"ARG_OF_PERICENTER":75.2721,"MEAN_ANOMALY":284.8631,"EPHEMERIS_TYPE":0,"CLASSIFICATION_TYPE":"U","NORAD_CAT_ID":49307,"ELEMENT_SET_NO":999,"REV_AT_EPOCH":21056,"BSTAR":0.00024612417,"MEAN_MOTION_DOT":1.13e-6,"MEAN_MOTION_DDOT":0},{"OBJECT_NAME":"ONEWEB-0382","OBJECT_ID":"2021-090AF","EPOCH":"2026-01-22T05:42:52.628832","MEAN_MOTION":13.20772929,"ECCENTRICITY":0.00020058,"INCLINATION":87.9232,"RA_OF_ASC_NODE":303.5544,"ARG_OF_PERICENTER":70.7001,"MEAN_ANOMALY":289.4349,"EPHEMERIS_TYPE":0,"CLASSIFICATION_TYPE":"U","NORAD_CAT_ID":49308,"ELEMENT_SET_NO":999,"REV_AT_EPOCH":21055,"BSTAR":7.7733685e-5,"MEAN_MOTION_DOT":4.5e-7,"MEAN_MOTION_DDOT":0},{"OBJECT_NAME":"ONEWEB-0383","OBJECT_ID":"2021-090AG","EPOCH":"2026-01-22T06:22:58.823040","MEAN_MOTION":13.14503995,"ECCENTRICITY":0.00018279,"INCLINATION":87.9034,"RA_OF_ASC_NODE":318.775,"ARG_OF_PERICENTER":73.0357,"MEAN_ANOMALY":287.0973,"EPHEMERIS_TYPE":0,"CLASSIFICATION_TYPE":"U","NORAD_CAT_ID":49309,"ELEMENT_SET_NO":999,"REV_AT_EPOCH":20842,"BSTAR":0.0010477674,"MEAN_MOTION_DOT":4.01e-6,"MEAN_MOTION_DDOT":0},{"OBJECT_NAME":"ONEWEB-0384","OBJECT_ID":"2021-090AH","EPOCH":"2026-01-22T05:32:06.352512","MEAN_MOTION":13.20803143,"ECCENTRICITY":0.000216,"INCLINATION":87.9242,"RA_OF_ASC_NODE":303.5952,"ARG_OF_PERICENTER":63.4713,"MEAN_ANOMALY":296.6641,"EPHEMERIS_TYPE":0,"CLASSIFICATION_TYPE":"U","NORAD_CAT_ID":49310,"ELEMENT_SET_NO":999,"REV_AT_EPOCH":21056,"BSTAR":0.0002770523,"MEAN_MOTION_DOT":1.26e-6,"MEAN_MOTION_DDOT":0},{"OBJECT_NAME":"ONEWEB-0385","OBJECT_ID":"2021-090AJ","EPOCH":"2026-01-22T05:31:31.210176","MEAN_MOTION":13.20769925,"ECCENTRICITY":0.00018536,"INCLINATION":87.923,"RA_OF_ASC_NODE":303.5599,"ARG_OF_PERICENTER":74.8196,"MEAN_ANOMALY":285.3143,"EPHEMERIS_TYPE":0,"CLASSIFICATION_TYPE":"U","NORAD_CAT_ID":49311,"ELEMENT_SET_NO":999,"REV_AT_EPOCH":21053,"BSTAR":0.00030790007,"MEAN_MOTION_DOT":1.38e-6,"MEAN_MOTION_DDOT":0},{"OBJECT_NAME":"ONEWEB-0386","OBJECT_ID":"2021-090AK","EPOCH":"2026-01-22T05:56:30.223392","MEAN_MOTION":13.20774408,"ECCENTRICITY":0.00019087,"INCLINATION":87.9232,"RA_OF_ASC_NODE":303.5415,"ARG_OF_PERICENTER":70.3899,"MEAN_ANOMALY":289.7441,"EPHEMERIS_TYPE":0,"CLASSIFICATION_TYPE":"U","NORAD_CAT_ID":49312,"ELEMENT_SET_NO":999,"REV_AT_EPOCH":21055,"BSTAR":0.00041698405,"MEAN_MOTION_DOT":1.83e-6,"MEAN_MOTION_DDOT":0},{"OBJECT_NAME":"ONEWEB-0387","OBJECT_ID":"2021-090AL","EPOCH":"2026-01-22T05:33:47.384352","MEAN_MOTION":13.20773514,"ECCENTRICITY":0.00019886,"INCLINATION":87.9224,"RA_OF_ASC_NODE":303.5861,"ARG_OF_PERICENTER":79.5326,"MEAN_ANOMALY":280.6031,"EPHEMERIS_TYPE":0,"CLASSIFICATION_TYPE":"U","NORAD_CAT_ID":49313,"ELEMENT_SET_NO":999,"REV_AT_EPOCH":21055,"BSTAR":0.00027128191,"MEAN_MOTION_DOT":1.23e-6,"MEAN_MOTION_DDOT":0},{"OBJECT_NAME":"ONEWEB-0388","OBJECT_ID":"2021-090AM","EPOCH":"2026-01-22T07:24:47.194848","MEAN_MOTION":13.19727144,"ECCENTRICITY":0.00019235,"INCLINATION":87.9236,"RA_OF_ASC_NODE":334.0044,"ARG_OF_PERICENTER":76.866,"MEAN_ANOMALY":283.2687,"EPHEMERIS_TYPE":0,"CLASSIFICATION_TYPE":"U","NORAD_CAT_ID":49314,"ELEMENT_SET_NO":999,"REV_AT_EPOCH":20717,"BSTAR":0.00013480421,"MEAN_MOTION_DOT":6.7e-7,"MEAN_MOTION_DDOT":0},{"OBJECT_NAME":"ONEWEB-0389","OBJECT_ID":"2021-132A","EPOCH":"2026-01-22T07:48:29.554848","MEAN_MOTION":13.17649129,"ECCENTRICITY":0.00021932,"INCLINATION":87.9087,"RA_OF_ASC_NODE":34.8576,"ARG_OF_PERICENTER":89.9158,"MEAN_ANOMALY":270.2225,"EPHEMERIS_TYPE":0,"CLASSIFICATION_TYPE":"U","NORAD_CAT_ID":50469,"ELEMENT_SET_NO":999,"REV_AT_EPOCH":19887,"BSTAR":-1.2428657e-5,"MEAN_MOTION_DOT":8.0e-8,"MEAN_MOTION_DDOT":0},{"OBJECT_NAME":"ONEWEB-0390","OBJECT_ID":"2021-132B","EPOCH":"2026-01-22T07:50:55.332384","MEAN_MOTION":13.17648546,"ECCENTRICITY":0.0001838,"INCLINATION":87.9086,"RA_OF_ASC_NODE":34.858,"ARG_OF_PERICENTER":100.1817,"MEAN_ANOMALY":259.9522,"EPHEMERIS_TYPE":0,"CLASSIFICATION_TYPE":"U","NORAD_CAT_ID":50470,"ELEMENT_SET_NO":999,"REV_AT_EPOCH":19887,"BSTAR":7.78616e-5,"MEAN_MOTION_DOT":4.3e-7,"MEAN_MOTION_DDOT":0},{"OBJECT_NAME":"ONEWEB-0391","OBJECT_ID":"2021-132C","EPOCH":"2026-01-22T00:35:56.785056","MEAN_MOTION":13.1765111,"ECCENTRICITY":0.00026608,"INCLINATION":87.9085,"RA_OF_ASC_NODE":34.9276,"ARG_OF_PERICENTER":98.5932,"MEAN_ANOMALY":261.5501,"EPHEMERIS_TYPE":0,"CLASSIFICATION_TYPE":"U","NORAD_CAT_ID":50471,"ELEMENT_SET_NO":999,"REV_AT_EPOCH":19883,"BSTAR":2.620021e-5,"MEAN_MOTION_DOT":2.3e-7,"MEAN_MOTION_DDOT":0},{"OBJECT_NAME":"ONEWEB-0392","OBJECT_ID":"2021-132D","EPOCH":"2026-01-22T06:47:44.923776","MEAN_MOTION":13.17650944,"ECCENTRICITY":0.00022286,"INCLINATION":87.9091,"RA_OF_ASC_NODE":34.8315,"ARG_OF_PERICENTER":91.4425,"MEAN_ANOMALY":268.6962,"EPHEMERIS_TYPE":0,"CLASSIFICATION_TYPE":"U","NORAD_CAT_ID":50472,"ELEMENT_SET_NO":999,"REV_AT_EPOCH":19890,"BSTAR":0.00014105574,"MEAN_MOTION_DOT":6.8e-7,"MEAN_MOTION_DDOT":0},{"OBJECT_NAME":"ONEWEB-0393","OBJECT_ID":"2021-132E","EPOCH":"2026-01-22T00:41:01.105728","MEAN_MOTION":13.17648182,"ECCENTRICITY":0.00019865,"INCLINATION":87.9096,"RA_OF_ASC_NODE":34.9056,"ARG_OF_PERICENTER":91.4256,"MEAN_ANOMALY":268.7103,"EPHEMERIS_TYPE":0,"CLASSIFICATION_TYPE":"U","NORAD_CAT_ID":50473,"ELEMENT_SET_NO":999,"REV_AT_EPOCH":19886,"BSTAR":3.2522474e-5,"MEAN_MOTION_DOT":2.6e-7,"MEAN_MOTION_DDOT":0},{"OBJECT_NAME":"ONEWEB-0394","OBJECT_ID":"2021-132F","EPOCH":"2026-01-21T21:12:43.153056","MEAN_MOTION":13.18685304,"ECCENTRICITY":0.00019905,"INCLINATION":87.9196,"RA_OF_ASC_NODE":4.485,"ARG_OF_PERICENTER":82.7583,"MEAN_ANOMALY":277.3775,"EPHEMERIS_TYPE":0,"CLASSIFICATION_TYPE":"U","NORAD_CAT_ID":50474,"ELEMENT_SET_NO":999,"REV_AT_EPOCH":20231,"BSTAR":2.746101e-5,"MEAN_MOTION_DOT":2.4e-7,"MEAN_MOTION_DDOT":0},{"OBJECT_NAME":"ONEWEB-0395","OBJECT_ID":"2021-132G","EPOCH":"2026-01-22T01:24:33.820128","MEAN_MOTION":13.11418754,"ECCENTRICITY":0.00019457,"INCLINATION":87.8815,"RA_OF_ASC_NODE":50.1607,"ARG_OF_PERICENTER":101.1495,"MEAN_ANOMALY":258.9852,"EPHEMERIS_TYPE":0,"CLASSIFICATION_TYPE":"U","NORAD_CAT_ID":50475,"ELEMENT_SET_NO":999,"REV_AT_EPOCH":19656,"BSTAR":0.0016072471,"MEAN_MOTION_DOT":5.82e-6,"MEAN_MOTION_DDOT":0},{"OBJECT_NAME":"ONEWEB-0396","OBJECT_ID":"2021-132H","EPOCH":"2026-01-22T04:20:16.384416","MEAN_MOTION":13.186869,"ECCENTRICITY":0.00019549,"INCLINATION":87.9197,"RA_OF_ASC_NODE":4.4379,"ARG_OF_PERICENTER":84.3159,"MEAN_ANOMALY":275.8196,"EPHEMERIS_TYPE":0,"CLASSIFICATION_TYPE":"U","NORAD_CAT_ID":50476,"ELEMENT_SET_NO":999,"REV_AT_EPOCH":20239,"BSTAR":8.9654215e-5,"MEAN_MOTION_DOT":4.8e-7,"MEAN_MOTION_DDOT":0},{"OBJECT_NAME":"ONEWEB-0397","OBJECT_ID":"2021-132J","EPOCH":"2026-01-21T21:24:35.185824","MEAN_MOTION":13.18686333,"ECCENTRICITY":0.00019632,"INCLINATION":87.9196,"RA_OF_ASC_NODE":4.4953,"ARG_OF_PERICENTER":79.716,"MEAN_ANOMALY":280.4194,"EPHEMERIS_TYPE":0,"CLASSIFICATION_TYPE":"U","NORAD_CAT_ID":50477,"ELEMENT_SET_NO":999,"REV_AT_EPOCH":20233,"BSTAR":5.809195e-5,"MEAN_MOTION_DOT":3.6e-7,"MEAN_MOTION_DDOT":0}]
